{
  "norad_id": "49062",
  "name": "ZHONGXING-2E",
  "line1": "1 49062U 21071A   26171.41126538 -.00000296  00000+0  00000+0 0  9995",
  "line2": "2 49062   0.0209 225.1100 0001673 266.6751  22.9587  1.00272973 18075",
  "fetched_at": "2026-06-22T01:53:10.875039+00:00"
}